[{"OBJECT_NAME":"STARLINK-11524 [DTC]","OBJECT_ID":"2025-019L","EPOCH":"2026-03-22T03:12:51.751584","MEAN_MOTION":15.70833297,"ECCENTRICITY":5.556e-5,"INCLINATION":43.0005,"RA_OF_ASC_NODE":231.3504,"ARG_OF_PERICENTER":310.972,"MEAN_ANOMALY":49.1099,"EPHEMERIS_TYPE":0,"CLASSIFICATION_TYPE":"U","NORAD_CAT_ID":62839,"ELEMENT_SET_NO":999,"REV_AT_EPOCH":6583,"BSTAR":0.0023749288,"MEAN_MOTION_DOT":0.00316092,"MEAN_MOTION_DDOT":0},{"OBJECT_NAME":"STARLINK-11551 [DTC]","OBJECT_ID":"2025-019M","EPOCH":"2026-03-22T07:01:40.486944","MEAN_MOTION":15.70921985,"ECCENTRICITY":0.00037726,"INCLINATION":43.0002,"RA_OF_ASC_NODE":229.9433,"ARG_OF_PERICENTER":302.7456,"MEAN_ANOMALY":57.3048,"EPHEMERIS_TYPE":0,"CLASSIFICATION_TYPE":"U","NORAD_CAT_ID":62840,"ELEMENT_SET_NO":999,"REV_AT_EPOCH":6586,"BSTAR":0.0022697879,"MEAN_MOTION_DOT":0.00302734,"MEAN_MOTION_DDOT":0},{"OBJECT_NAME":"STARLINK-11531 [DTC]","OBJECT_ID":"2025-019N","EPOCH":"2026-03-22T02:49:55.563744","MEAN_MOTION":15.70842639,"ECCENTRICITY":7.73e-5,"INCLINATION":43.0009,"RA_OF_ASC_NODE":231.2217,"ARG_OF_PERICENTER":356.5092,"MEAN_ANOMALY":3.577,"EPHEMERIS_TYPE":0,"CLASSIFICATION_TYPE":"U","NORAD_CAT_ID":62841,"ELEMENT_SET_NO":999,"REV_AT_EPOCH":6583,"BSTAR":0.002650449,"MEAN_MOTION_DOT":0.00354614,"MEAN_MOTION_DDOT":0},{"OBJECT_NAME":"STARLINK-32755","OBJECT_ID":"2025-019P","EPOCH":"2026-03-21T23:46:48.000576","MEAN_MOTION":15.27565548,"ECCENTRICITY":0.00045066,"INCLINATION":43.0036,"RA_OF_ASC_NODE":12.4692,"ARG_OF_PERICENTER":299.2902,"MEAN_ANOMALY":60.7499,"EPHEMERIS_TYPE":0,"CLASSIFICATION_TYPE":"U","NORAD_CAT_ID":62842,"ELEMENT_SET_NO":999,"REV_AT_EPOCH":6421,"BSTAR":-0.00086527612,"MEAN_MOTION_DOT":-0.00023994,"MEAN_MOTION_DDOT":0},{"OBJECT_NAME":"STARLINK-32797","OBJECT_ID":"2025-019Q","EPOCH":"2026-03-22T03:01:07.647744","MEAN_MOTION":15.27570338,"ECCENTRICITY":0.00011414,"INCLINATION":42.9996,"RA_OF_ASC_NODE":18.6829,"ARG_OF_PERICENTER":253.4568,"MEAN_ANOMALY":106.6158,"EPHEMERIS_TYPE":0,"CLASSIFICATION_TYPE":"U","NORAD_CAT_ID":62843,"ELEMENT_SET_NO":999,"REV_AT_EPOCH":6415,"BSTAR":0.0011390657,"MEAN_MOTION_DOT":0.00031206,"MEAN_MOTION_DDOT":0},{"OBJECT_NAME":"STARLINK-32794","OBJECT_ID":"2025-019R","EPOCH":"2026-03-21T21:21:28.960992","MEAN_MOTION":15.27603881,"ECCENTRICITY":0.00022185,"INCLINATION":43.0054,"RA_OF_ASC_NODE":20.3499,"ARG_OF_PERICENTER":261.6812,"MEAN_ANOMALY":98.3788,"EPHEMERIS_TYPE":0,"CLASSIFICATION_TYPE":"U","NORAD_CAT_ID":62844,"ELEMENT_SET_NO":999,"REV_AT_EPOCH":6411,"BSTAR":0.00046510095,"MEAN_MOTION_DOT":0.00012568,"MEAN_MOTION_DDOT":0},{"OBJECT_NAME":"STARLINK-32807","OBJECT_ID":"2025-019S","EPOCH":"2026-03-22T02:12:32.695776","MEAN_MOTION":15.27588339,"ECCENTRICITY":4.316e-5,"INCLINATION":42.9989,"RA_OF_ASC_NODE":11.4988,"ARG_OF_PERICENTER":189.7245,"MEAN_ANOMALY":170.3598,"EPHEMERIS_TYPE":0,"CLASSIFICATION_TYPE":"U","NORAD_CAT_ID":62845,"ELEMENT_SET_NO":999,"REV_AT_EPOCH":6423,"BSTAR":-0.00011689629,"MEAN_MOTION_DOT":-3.478e-5,"MEAN_MOTION_DDOT":0},{"OBJECT_NAME":"STARLINK-32804","OBJECT_ID":"2025-019T","EPOCH":"2026-03-21T20:55:34.949856","MEAN_MOTION":15.27622358,"ECCENTRICITY":0.00012184,"INCLINATION":43.0038,"RA_OF_ASC_NODE":20.2193,"ARG_OF_PERICENTER":262.7824,"MEAN_ANOMALY":97.2889,"EPHEMERIS_TYPE":0,"CLASSIFICATION_TYPE":"U","NORAD_CAT_ID":62846,"ELEMENT_SET_NO":999,"REV_AT_EPOCH":6411,"BSTAR":0.0010165144,"MEAN_MOTION_DOT":0.00027852,"MEAN_MOTION_DDOT":0},{"OBJECT_NAME":"STARLINK-32799","OBJECT_ID":"2025-019U","EPOCH":"2026-03-22T02:50:01.229856","MEAN_MOTION":15.27563588,"ECCENTRICITY":0.00022097,"INCLINATION":43.0021,"RA_OF_ASC_NODE":18.6207,"ARG_OF_PERICENTER":260.0558,"MEAN_ANOMALY":100.0045,"EPHEMERIS_TYPE":0,"CLASSIFICATION_TYPE":"U","NORAD_CAT_ID":62847,"ELEMENT_SET_NO":999,"REV_AT_EPOCH":6415,"BSTAR":0.0010211172,"MEAN_MOTION_DOT":0.0002793,"MEAN_MOTION_DDOT":0},{"OBJECT_NAME":"STARLINK-32781","OBJECT_ID":"2025-019V","EPOCH":"2026-03-22T03:10:22.721088","MEAN_MOTION":15.27543041,"ECCENTRICITY":4.091e-5,"INCLINATION":43.0016,"RA_OF_ASC_NODE":18.7325,"ARG_OF_PERICENTER":287.8735,"MEAN_ANOMALY":72.2072,"EPHEMERIS_TYPE":0,"CLASSIFICATION_TYPE":"U","NORAD_CAT_ID":62848,"ELEMENT_SET_NO":999,"REV_AT_EPOCH":6415,"BSTAR":-0.00070801807,"MEAN_MOTION_DOT":-0.00019671,"MEAN_MOTION_DDOT":0},{"OBJECT_NAME":"STARLINK-32809","OBJECT_ID":"2025-019W","EPOCH":"2026-03-22T02:35:13.376544","MEAN_MOTION":15.27509539,"ECCENTRICITY":0.00015587,"INCLINATION":43.0006,"RA_OF_ASC_NODE":18.5404,"ARG_OF_PERICENTER":283.0399,"MEAN_ANOMALY":77.0279,"EPHEMERIS_TYPE":0,"CLASSIFICATION_TYPE":"U","NORAD_CAT_ID":62849,"ELEMENT_SET_NO":999,"REV_AT_EPOCH":6415,"BSTAR":0.0018108506,"MEAN_MOTION_DOT":0.00049798,"MEAN_MOTION_DDOT":0},{"OBJECT_NAME":"STARLINK-32868","OBJECT_ID":"2025-022A","EPOCH":"2026-03-22T05:18:40.445280","MEAN_MOTION":15.30205626,"ECCENTRICITY":0.00011339,"INCLINATION":53.1605,"RA_OF_ASC_NODE":71.0585,"ARG_OF_PERICENTER":102.7437,"MEAN_ANOMALY":257.3691,"EPHEMERIS_TYPE":0,"CLASSIFICATION_TYPE":"U","NORAD_CAT_ID":62854,"ELEMENT_SET_NO":999,"REV_AT_EPOCH":6463,"BSTAR":0.00093277895,"MEAN_MOTION_DOT":0.00027374,"MEAN_MOTION_DDOT":0},{"OBJECT_NAME":"STARLINK-32867","OBJECT_ID":"2025-022B","EPOCH":"2026-03-22T05:23:14.251200","MEAN_MOTION":15.30201455,"ECCENTRICITY":0.00011886,"INCLINATION":53.1619,"RA_OF_ASC_NODE":71.0672,"ARG_OF_PERICENTER":104.7325,"MEAN_ANOMALY":255.3808,"EPHEMERIS_TYPE":0,"CLASSIFICATION_TYPE":"U","NORAD_CAT_ID":62855,"ELEMENT_SET_NO":999,"REV_AT_EPOCH":6382,"BSTAR":0.0011810608,"MEAN_MOTION_DOT":0.00034786,"MEAN_MOTION_DDOT":0},{"OBJECT_NAME":"STARLINK-32860","OBJECT_ID":"2025-022C","EPOCH":"2026-03-22T06:40:44.491008","MEAN_MOTION":15.30176991,"ECCENTRICITY":0.00012701,"INCLINATION":53.1595,"RA_OF_ASC_NODE":71.41,"ARG_OF_PERICENTER":74.4773,"MEAN_ANOMALY":285.6368,"EPHEMERIS_TYPE":0,"CLASSIFICATION_TYPE":"U","NORAD_CAT_ID":62856,"ELEMENT_SET_NO":999,"REV_AT_EPOCH":6382,"BSTAR":-0.0004825367,"MEAN_MOTION_DOT":-0.00014612,"MEAN_MOTION_DDOT":0},{"OBJECT_NAME":"STARLINK-32873","OBJECT_ID":"2025-022D","EPOCH":"2026-03-22T06:39:13.358880","MEAN_MOTION":15.30193592,"ECCENTRICITY":0.00010857,"INCLINATION":53.1598,"RA_OF_ASC_NODE":71.409,"ARG_OF_PERICENTER":92.5577,"MEAN_ANOMALY":267.5548,"EPHEMERIS_TYPE":0,"CLASSIFICATION_TYPE":"U","NORAD_CAT_ID":62857,"ELEMENT_SET_NO":999,"REV_AT_EPOCH":6382,"BSTAR":0.00013670573,"MEAN_MOTION_DOT":3.691e-5,"MEAN_MOTION_DDOT":0},{"OBJECT_NAME":"STARLINK-32866","OBJECT_ID":"2025-022E","EPOCH":"2026-03-22T05:29:18.431520","MEAN_MOTION":15.30202819,"ECCENTRICITY":0.00017087,"INCLINATION":53.1613,"RA_OF_ASC_NODE":71.1011,"ARG_OF_PERICENTER":100.0214,"MEAN_ANOMALY":260.0979,"EPHEMERIS_TYPE":0,"CLASSIFICATION_TYPE":"U","NORAD_CAT_ID":62858,"ELEMENT_SET_NO":999,"REV_AT_EPOCH":6382,"BSTAR":0.0014362691,"MEAN_MOTION_DOT":0.00042426,"MEAN_MOTION_DDOT":0}]
