STARLINK-11524 [DTC]    
1 62839U 25019L   26081.13393231  .00316092  00000+0  23749-2 0  9994
2 62839  43.0005 231.3504 0000555 310.9720  49.1099 15.70833297 65836
STARLINK-11551 [DTC]    
1 62840U 25019M   26081.29282971  .00302734  00000+0  22698-2 0  9991
2 62840  43.0002 229.9433 0003772 302.7456  57.3048 15.70921985 65868
STARLINK-11531 [DTC]    
1 62841U 25019N   26081.11800421  .00354614  00000+0  26504-2 0  9993
2 62841  43.0009 231.2217 0000773 356.5092   3.5770 15.70842639 65833
STARLINK-32755          
1 62842U 25019P   26080.99083334 -.00023994  00000+0 -86528-3 0  9994
2 62842  43.0036  12.4692 0004506 299.2902  60.7499 15.27565548 64218
STARLINK-32797          
1 62843U 25019Q   26081.12578296  .00031206  00000+0  11391-2 0  9995
2 62843  42.9996  18.6829 0001141 253.4568 106.6158 15.27570338 64152
STARLINK-32794          
1 62844U 25019R   26080.88991853  .00012568  00000+0  46510-3 0  9998
2 62844  43.0054  20.3499 0002218 261.6812  98.3788 15.27603881 64114
STARLINK-32807          
1 62845U 25019S   26081.09204509 -.00003478  00000+0 -11690-3 0  9991
2 62845  42.9989  11.4988 0000431 189.7245 170.3598 15.27588339 64232
STARLINK-32804          
1 62846U 25019T   26080.87193229  .00027852  00000+0  10165-2 0  9998
2 62846  43.0038  20.2193 0001218 262.7824  97.2889 15.27622358 64112
STARLINK-32799          
1 62847U 25019U   26081.11806979  .00027930  00000+0  10211-2 0  9999
2 62847  43.0021  18.6207 0002209 260.0558 100.0045 15.27563588 64158
STARLINK-32781          
1 62848U 25019V   26081.13220742 -.00019671  00000+0 -70802-3 0  9998
2 62848  43.0016  18.7325 0000409 287.8735  72.2072 15.27543041 64151
STARLINK-32809          
1 62849U 25019W   26081.10779371  .00049798  00000+0  18109-2 0  9995
2 62849  43.0006  18.5404 0001558 283.0399  77.0279 15.27509539 64153
STARLINK-32868          
1 62854U 25022A   26081.22130145  .00027374  00000+0  93278-3 0  9995
2 62854  53.1605  71.0585 0001133 102.7437 257.3691 15.30205626 64637
STARLINK-32867          
1 62855U 25022B   26081.22447050  .00034786  00000+0  11811-2 0  9999
2 62855  53.1619  71.0672 0001188 104.7325 255.3808 15.30201455 63822
STARLINK-32860          
1 62856U 25022C   26081.27829272 -.00014612  00000+0 -48254-3 0  9995
2 62856  53.1595  71.4100 0001270  74.4773 285.6368 15.30176991 63821
STARLINK-32873          
1 62857U 25022D   26081.27723795  .00003691  00000+0  13671-3 0  9997
2 62857  53.1598  71.4090 0001085  92.5577 267.5548 15.30193592 63825
STARLINK-32866          
1 62858U 25022E   26081.22868555  .00042426  00000+0  14363-2 0  9994
2 62858  53.1613  71.1011 0001708 100.0214 260.0979 15.30202819 63828
